{"type":"FeatureCollection","features":[{"type":"Feature","id":"1","properties":{"rec_ID":"1","rec_RecTypeID":"89","rec_Title":"record 1","rec_URL":null,"rec_ScratchPad":"","rec_OwnerUGrpID":"2","rec_NonOwnerVisibility":"viewable","rec_URLLastVerified":null,"rec_URLErrorMessage":null,"rec_Added":"2026-02-10 09:53:02","rec_Modified":"2026-03-03 09:02:37","rec_AddedByUGrpID":"2","rec_Hash":null,"rec_FlagTemporary":"0","details":[{"ID":1,"value":"Saint Emilion"},{"ID":1017,"value":"9637"},{"ID":1106,"value":"T\u00eate et jambes coup\u00e9es"},{"ID":1107,"value":"Lion rampant"},{"ID":1108,"value":"Cotte d'arme, d\u00e9but cotte de maille \u00e0 capuchon, Ecu, Ep\u00e9e, Ceinture"},{"ID":1110,"value":"6","resourceTitle":"Saint Emilion","resourceRecTypeID":"12"}]},"geometry":{"type":"Point","coordinates":[-0.15653004,44.89380979]}},{"type":"Feature","id":"6","properties":{"rec_ID":"6","rec_RecTypeID":"12","rec_Title":"Saint Emilion","rec_URL":null,"rec_ScratchPad":"","rec_OwnerUGrpID":"2","rec_NonOwnerVisibility":"viewable","rec_URLLastVerified":null,"rec_URLErrorMessage":null,"rec_Added":"2026-02-10 10:00:02","rec_Modified":"2026-03-03 09:02:37","rec_AddedByUGrpID":"2","rec_Hash":null,"rec_FlagTemporary":"0","details":[{"ID":1,"value":"Saint Emilion"},{"ID":26,"value":"110"},{"ID":1109,"value":"Clo\u00eetre"}]},"geometry":{"type":"Point","coordinates":[-0.1565442,44.89381173]}},{"type":"Feature","id":"2","properties":{"rec_ID":"2","rec_RecTypeID":"89","rec_Title":"record 2","rec_URL":null,"rec_ScratchPad":"","rec_OwnerUGrpID":"2","rec_NonOwnerVisibility":"viewable","rec_URLLastVerified":null,"rec_URLErrorMessage":null,"rec_Added":"2026-02-10 09:53:02","rec_Modified":"2026-03-03 09:01:46","rec_AddedByUGrpID":"2","rec_Hash":null,"rec_FlagTemporary":"0","details":[{"ID":1,"value":"Sadirac"},{"ID":1017,"value":"9637"},{"ID":1106,"value":"T\u00eate figure animale coup\u00e9e"},{"ID":1107,"value":"Lion rampant couronn\u00e9"},{"ID":1108,"value":"Cotte d'arme, cotte de maille \u00e0 capuchon, Ecu, Ep\u00e9e, Ceinture, Eperon, Chausse"},{"ID":1110,"value":"10","resourceTitle":"Tustal (Sadirac)","resourceRecTypeID":"12"}]},"geometry":{"type":"Point","coordinates":[-0.38981307,44.78531957]}},{"type":"Feature","id":"10","properties":{"rec_ID":"10","rec_RecTypeID":"12","rec_Title":"Tustal (Sadirac)","rec_URL":null,"rec_ScratchPad":"","rec_OwnerUGrpID":"2","rec_NonOwnerVisibility":"viewable","rec_URLLastVerified":null,"rec_URLErrorMessage":null,"rec_Added":"2026-02-10 10:00:02","rec_Modified":"2026-03-03 09:01:46","rec_AddedByUGrpID":"2","rec_Hash":null,"rec_FlagTemporary":"0","details":[{"ID":1,"value":"Tustal (Sadirac)"},{"ID":26,"value":"110"},{"ID":1109,"value":"Parc"}]},"geometry":{"type":"Point","coordinates":[-0.38959825,44.78523548]}},{"type":"Feature","id":"3","properties":{"rec_ID":"3","rec_RecTypeID":"89","rec_Title":"record 3","rec_URL":null,"rec_ScratchPad":"","rec_OwnerUGrpID":"2","rec_NonOwnerVisibility":"viewable","rec_URLLastVerified":null,"rec_URLErrorMessage":null,"rec_Added":"2026-02-10 09:53:02","rec_Modified":"2026-03-03 09:00:51","rec_AddedByUGrpID":"2","rec_Hash":null,"rec_FlagTemporary":"0","details":[{"ID":1,"value":"Uzeste"},{"ID":1017,"value":"9637"},{"ID":1106,"value":"Haut du corps d\u00e9grad\u00e9 et jambes coup\u00e9es"},{"ID":1107,"value":"D'argent, \u00e0 une croix de sable charg\u00e9e de cinq coquilles d'argent"},{"ID":1108,"value":"Cotte d'arme, d\u00e9but cotte de maille \u00e0 capuchon, Ecu, Ep\u00e9e, Ceinture"},{"ID":1110,"value":"8","resourceTitle":"Uzeste","resourceRecTypeID":"12"}]},"geometry":{"type":"Point","coordinates":[-0.32387433,44.44188006]}},{"type":"Feature","id":"8","properties":{"rec_ID":"8","rec_RecTypeID":"12","rec_Title":"Uzeste","rec_URL":null,"rec_ScratchPad":"","rec_OwnerUGrpID":"2","rec_NonOwnerVisibility":"viewable","rec_URLLastVerified":null,"rec_URLErrorMessage":null,"rec_Added":"2026-02-10 10:00:02","rec_Modified":"2026-03-03 09:00:51","rec_AddedByUGrpID":"2","rec_Hash":null,"rec_FlagTemporary":"0","details":[{"ID":1,"value":"Uzeste"},{"ID":26,"value":"110"},{"ID":1109,"value":"Eglise"}]},"geometry":{"type":"Point","coordinates":[-0.32373664,44.44179299]}},{"type":"Feature","id":"4","properties":{"rec_ID":"4","rec_RecTypeID":"89","rec_Title":"record 4","rec_URL":null,"rec_ScratchPad":"","rec_OwnerUGrpID":"2","rec_NonOwnerVisibility":"viewable","rec_URLLastVerified":null,"rec_URLErrorMessage":null,"rec_Added":"2026-02-10 09:53:02","rec_Modified":"2026-03-03 09:00:07","rec_AddedByUGrpID":"2","rec_Hash":null,"rec_FlagTemporary":"0","details":[{"ID":1,"value":"Frontenac"},{"ID":1017,"value":"9637"},{"ID":1106,"value":"Corps et \u00e9cu d\u00e9grad\u00e9"},{"ID":1107,"value":"A identifier"},{"ID":1108,"value":"Cotte d'arme, Ecu, Ceinture"},{"ID":1110,"value":"7","resourceTitle":"Frontenac","resourceRecTypeID":"12"}]},"geometry":{"type":"Point","coordinates":[-0.16334984,44.73820312]}},{"type":"Feature","id":"7","properties":{"rec_ID":"7","rec_RecTypeID":"12","rec_Title":"Frontenac","rec_URL":null,"rec_ScratchPad":"","rec_OwnerUGrpID":"2","rec_NonOwnerVisibility":"viewable","rec_URLLastVerified":null,"rec_URLErrorMessage":null,"rec_Added":"2026-02-10 10:00:02","rec_Modified":"2026-03-03 09:00:07","rec_AddedByUGrpID":"2","rec_Hash":null,"rec_FlagTemporary":"0","details":[{"ID":1,"value":"Frontenac"},{"ID":26,"value":"110"},{"ID":1109,"value":"Eglise"}]},"geometry":{"type":"Point","coordinates":[-0.1631448,44.73825001]}},{"type":"Feature","id":"5","properties":{"rec_ID":"5","rec_RecTypeID":"89","rec_Title":"record 5","rec_URL":null,"rec_ScratchPad":"","rec_OwnerUGrpID":"2","rec_NonOwnerVisibility":"viewable","rec_URLLastVerified":null,"rec_URLErrorMessage":null,"rec_Added":"2026-02-10 09:53:02","rec_Modified":"2026-03-03 08:59:06","rec_AddedByUGrpID":"2","rec_Hash":null,"rec_FlagTemporary":"0","details":[{"ID":1,"value":"Montarouch (Targon)"},{"ID":1017,"value":"9637"},{"ID":1106,"value":"A identifier"},{"ID":1107,"value":"A identifier"},{"ID":1108,"value":"A identifier"},{"ID":1110,"value":"9","resourceTitle":"Targon","resourceRecTypeID":"12"}]},"geometry":{"type":"Point","coordinates":[-0.26358638,44.7345219]}},{"type":"Feature","id":"9","properties":{"rec_ID":"9","rec_RecTypeID":"12","rec_Title":"Targon","rec_URL":null,"rec_ScratchPad":"","rec_OwnerUGrpID":"2","rec_NonOwnerVisibility":"viewable","rec_URLLastVerified":null,"rec_URLErrorMessage":null,"rec_Added":"2026-02-10 10:00:02","rec_Modified":"2026-03-03 08:59:06","rec_AddedByUGrpID":"2","rec_Hash":null,"rec_FlagTemporary":"0","details":[{"ID":1,"value":"Targon"},{"ID":26,"value":"110"},{"ID":1109,"value":"Commanderie"}]},"geometry":{"type":"Point","coordinates":[-0.26347551,44.7344824]}}]}